OBJECT_NAME,OBJECT_ID,EPOCH,MEAN_MOTION,ECCENTRICITY,INCLINATION,RA_OF_ASC_NODE,ARG_OF_PERICENTER,MEAN_ANOMALY,EPHEMERIS_TYPE,CLASSIFICATION_TYPE,NORAD_CAT_ID,ELEMENT_SET_NO,REV_AT_EPOCH,BSTAR,MEAN_MOTION_DOT,MEAN_MOTION_DDOT
LEMUR-2-ARIANNA,2025-009CU,2026-06-12T18:17:31.108704,15.02423392,.00037187,97.6898,245.1804,128.8562,231.2995,0,U,62699,999,7689,.69069959E-3,.91E-4,0
LEMUR-2-ALISIA,2025-009DB,2026-06-13T04:58:07.251168,15.02717056,.00015132,97.6968,246.4038,190.0957,170.0238,0,U,62706,999,9956,.57833769E-3,.7667E-4,0
LEMUR-2-ROUNDTRIPPER,2025-009DG,2026-06-12T18:26:43.249632,15.03721302,.00048835,97.7257,246.4537,144.8107,215.3441,0,U,62711,999,7696,.73392225E-3,.10014E-3,0
LEMUR-2-MYNAMEISJEFF,2025-009DH,2026-06-12T23:11:55.819392,15.03735200,.00030977,97.7306,247.0300,166.8393,193.2914,0,U,62712,999,7699,.65913145E-3,.8988E-4,0
LEMUR-2-LEIA-PHILIP,2025-052AN,2026-06-13T06:15:08.523648,14.97310985,.00021878,97.6847,56.2776,223.4183,136.6867,0,U,63246,999,6808,.14901522E-3,.1671E-4,0
LEMUR-2-LIA-MARTIN,2025-052AQ,2026-06-13T06:24:13.041504,14.97777652,.00027069,97.6916,56.7532,161.2405,198.8918,0,U,63248,999,6809,.38290335E-3,.4438E-4,0
LEMUR-2-DELOITTE-1,2025-052BB,2026-06-13T05:49:27.383520,14.97573560,.00030781,97.6926,57.0579,105.2478,254.9085,0,U,63259,999,6810,.36715275E-3,.4231E-4,0
LEMUR-2-EMERSONROSE,2025-052BD,2026-06-13T05:19:18.042240,14.99054488,.00019742,97.6901,57.5890,66.3296,293.8134,0,U,63261,999,6814,.30942397E-3,.3696E-4,0
LEMUR-2-MARACHE-FRAN,2025-052BE,2026-06-13T06:23:42.019584,15.00064684,.00057685,97.6957,57.9407,36.5003,323.6613,0,U,63262,999,6817,.47257655E-3,.5831E-4,0
LEMUR-2-THEFALCONER,2025-052BG,2026-06-13T06:26:38.565888,14.97368097,.00031593,97.6884,56.7085,45.6518,314.4963,0,U,63264,999,6810,.28234923E-3,.3222E-4,0
LEMUR-2-UNTITLED-SC,2025-061A,2026-06-13T04:30:33.454080,15.13447278,.00169265,97.5629,139.5788,279.9949,79.9372,0,U,63351,999,6698,.21353711E-3,.3762E-4,0
LEMUR-2-ESPERANZA,2025-061B,2026-06-13T03:57:59.263200,15.13539359,.00165515,97.5635,139.6488,279.3885,80.5474,0,U,63352,999,6698,.2167003E-3,.3828E-4,0
LEMUR-2-KREMPEL-BRO2,2025-061C,2026-06-13T04:38:30.048576,15.13977232,.00174343,97.5684,140.2051,270.9685,88.9549,0,U,63353,999,6700,.22407731E-3,.4012E-4,0
LEMUR-2-THERMORAPTOR,2025-061D,2026-06-13T05:48:08.772480,15.14055798,.00171288,97.5688,140.3280,269.5708,90.3560,0,U,63354,999,6701,.21499883E-3,.3855E-4,0
LEMUR-2-NEUROSPICY,2025-061E,2026-06-12T21:11:58.950816,15.14167376,.00150218,97.5614,139.6010,274.9281,85.0235,0,U,63355,999,6696,.26160192E-3,.4717E-4,0
LEMUR-2-TILLINFINITY,2025-061F,2026-06-13T04:25:39.042624,15.14756115,.00162091,97.5599,140.1881,260.5123,99.4277,0,U,63356,999,6703,.20690957E-3,.378E-4,0
LEMUR-2-KREMPEL-BRO1,2025-061G,2026-06-12T21:26:09.697056,15.14558896,.0016899,97.5600,139.8156,263.0188,96.9121,0,U,63357,999,6698,.24491156E-3,.4464E-4,0
LEMUR-2-LANGER2SPACE,2025-061H,2026-06-13T04:23:43.111104,15.14258877,.00148254,97.5605,139.9194,271.9458,88.0076,0,U,63358,999,6701,.21326705E-3,.3842E-4,0
LEMUR-2-BALTO,2025-052BH,2026-06-13T06:01:34.983840,15.00045621,.00068863,97.6897,57.9064,68.0914,292.1041,0,U,63395,999,6817,.48627768E-3,.6E-4,0
LEMUR-2-KRISH,2025-135AK,2026-06-13T06:17:44.056608,14.96170783,.00016312,97.7735,279.1656,104.7722,255.3680,0,U,64561,999,5333,.48925369E-3,.5455E-4,0
LEMUR-2-HUBBLE-4,2025-135AP,2026-06-13T05:59:32.493696,14.93186410,.00011972,97.7695,278.2036,333.8132,26.3027,0,U,64565,999,5328,.14486024E-3,.1456E-4,0
LEMUR-2-SEJONG-2,2025-135BL,2026-06-13T05:26:28.902624,14.96670343,.00041794,97.7688,279.2751,357.4240,2.6960,0,U,64586,999,5335,.35815547E-3,.4029E-4,0
LEMUR-2-HUBBLE-5,2025-135BT,2026-06-13T06:33:24.093792,14.94125913,.00053926,97.7714,278.8542,8.0107,352.1198,0,U,64840,999,5332,.16933861E-3,.1754E-4,0
LEMUR-2-KARENDARRELL,2025-135BU,2026-06-13T05:59:01.230720,15.00056881,.00094018,97.7674,280.4641,217.3934,142.6636,0,U,64841,999,5342,.63901192E-3,.7909E-4,0
LEMUR-2-LUCILLE-ROSE,2025-135BV,2026-06-12T19:45:02.095488,15.00102544,.00108014,97.7770,280.0528,299.6869,60.3279,0,U,65403,999,4798,.59229209E-3,.7337E-4,0
LEMUR-2-AFFIE-WAUWIE,2025-248C,2026-06-13T04:42:22.268448,15.27025697,.00078611,45.3883,136.6090,56.5592,303.6048,0,U,66295,999,3398,.55125581E-3,.1463E-3,0
LEMUR-2-DEANANDMAEVE,2025-276N,2026-06-12T16:56:03.262848,15.19680109,.0006162,97.4218,237.2554,29.5077,330.6504,0,U,66678,999,2973,.33418365E-3,.7068E-4,0
LEMUR-2-STAS-GORBUK,2025-276W,2026-06-13T05:54:10.198368,15.19341257,.00055002,97.4255,237.8420,28.6597,331.4939,0,U,66686,999,2981,.26395897E-3,.5512E-4,0
LEMUR-2-TEODOR,2025-276DG,2026-06-13T02:27:33.842592,15.21007667,.00020505,97.4157,237.9322,119.8189,240.3251,0,U,66768,999,2982,.28139289E-3,.6173E-4,0
