LEMUR-2-ARIANNA         
1 62699U 25009CU  26163.76216561  .00009100  00000+0  69070-3 0  9994
2 62699  97.6898 245.1804 0003718 128.8562 231.2995 15.02423392 76898
LEMUR-2-ALISIA          
1 62706U 25009DB  26164.20702837  .00007667  00000+0  57834-3 0  9990
2 62706  97.6968 246.4038 0001513 190.0957 170.0238 15.02717056 99560
LEMUR-2-ROUNDTRIPPER    
1 62711U 25009DG  26163.76855613  .00010014  00000+0  73392-3 0  9994
2 62711  97.7257 246.4537 0004883 144.8107 215.3441 15.03721302 76967
LEMUR-2-MYNAMEISJEFF    
1 62712U 25009DH  26163.96661828  .00008988  00000+0  65913-3 0  9997
2 62712  97.7306 247.0300 0003097 166.8393 193.2914 15.03735200 76999
LEMUR-2-LEIA-PHILIP     
1 63246U 25052AN  26164.26051532  .00001671  00000+0  14902-3 0  9991
2 63246  97.6847  56.2776 0002187 223.4183 136.6867 14.97310985 68084
LEMUR-2-LIA-MARTIN      
1 63248U 25052AQ  26164.26681761  .00004438  00000+0  38290-3 0  9996
2 63248  97.6916  56.7532 0002706 161.2405 198.8918 14.97777652 68097
LEMUR-2-DELOITTE-1      
1 63259U 25052BB  26164.24267805  .00004231  00000+0  36715-3 0  9996
2 63259  97.6926  57.0579 0003078 105.2478 254.9085 14.97573560 68109
LEMUR-2-EMERSONROSE     
1 63261U 25052BD  26164.22173660  .00003696  00000+0  30942-3 0  9992
2 63261  97.6901  57.5890 0001974  66.3296 293.8134 14.99054488 68140
LEMUR-2-MARACHE-FRAN    
1 63262U 25052BE  26164.26645856  .00005831  00000+0  47258-3 0  9999
2 63262  97.6957  57.9407 0005768  36.5003 323.6613 15.00064684 68179
LEMUR-2-THEFALCONER     
1 63264U 25052BG  26164.26850192  .00003222  00000+0  28235-3 0  9998
2 63264  97.6884  56.7085 0003159  45.6518 314.4963 14.97368097 68102
LEMUR-2-UNTITLED-SC     
1 63351U 25061A   26164.18788720  .00003762  00000+0  21354-3 0  9997
2 63351  97.5629 139.5788 0016926 279.9949  79.9372 15.13447278 66980
LEMUR-2-ESPERANZA       
1 63352U 25061B   26164.16526925  .00003828  00000+0  21670-3 0  9997
2 63352  97.5635 139.6488 0016551 279.3885  80.5474 15.13539359 66986
LEMUR-2-KREMPEL-BRO2    
1 63353U 25061C   26164.19340334  .00004012  00000+0  22408-3 0  9995
2 63353  97.5684 140.2051 0017434 270.9685  88.9549 15.13977232 67006
LEMUR-2-THERMORAPTOR    
1 63354U 25061D   26164.24176820  .00003855  00000+0  21500-3 0  9995
2 63354  97.5688 140.3280 0017128 269.5708  90.3560 15.14055798 67012
LEMUR-2-NEUROSPICY      
1 63355U 25061E   26163.88332119  .00004717  00000+0  26160-3 0  9995
2 63355  97.5614 139.6010 0015021 274.9281  85.0235 15.14167376 66969
LEMUR-2-TILLINFINITY    
1 63356U 25061F   26164.18447966  .00003780  00000+0  20691-3 0  9999
2 63356  97.5599 140.1881 0016209 260.5123  99.4277 15.14756115 67039
LEMUR-2-KREMPEL-BRO1    
1 63357U 25061G   26163.89316779  .00004464  00000+0  24491-3 0  9996
2 63357  97.5600 139.8156 0016899 263.0188  96.9121 15.14558896 66986
LEMUR-2-LANGER2SPACE    
1 63358U 25061H   26164.18313786  .00003842  00000+0  21327-3 0  9999
2 63358  97.5605 139.9194 0014825 271.9458  88.0076 15.14258877 67012
LEMUR-2-BALTO           
1 63395U 25052BH  26164.25109935  .00006000  00000+0  48628-3 0  9999
2 63395  97.6897  57.9064 0006886  68.0914 292.1041 15.00045621 68176
LEMUR-2-KRISH           
1 64561U 25135AK  26164.26231547  .00005455  00000+0  48925-3 0  9996
2 64561  97.7735 279.1656 0001631 104.7722 255.3680 14.96170783 53331
LEMUR-2-HUBBLE-4        
1 64565U 25135AP  26164.24968164  .00001456  00000+0  14486-3 0  9992
2 64565  97.7695 278.2036 0001197 333.8132  26.3027 14.93186410 53285
LEMUR-2-SEJONG-2        
1 64586U 25135BL  26164.22672341  .00004029  00000+0  35816-3 0  9991
2 64586  97.7688 279.2751 0004179 357.4240   2.6960 14.96670343 53357
LEMUR-2-HUBBLE-5        
1 64840U 25135BT  26164.27319553  .00001754  00000+0  16934-3 0  9994
2 64840  97.7714 278.8542 0005392   8.0107 352.1198 14.94125913 53321
LEMUR-2-KARENDARRELL    
1 64841U 25135BU  26164.24931980  .00007909  00000+0  63901-3 0  9990
2 64841  97.7674 280.4641 0009401 217.3934 142.6636 15.00056881 53429
LEMUR-2-LUCILLE-ROSE    
1 65403U 25135BV  26163.82294092  .00007337  00000+0  59229-3 0  9997
2 65403  97.7770 280.0528 0010801 299.6869  60.3279 15.00102544 47988
LEMUR-2-AFFIE-WAUWIE    
1 66295U 25248C   26164.19609107  .00014630  00000+0  55126-3 0  9996
2 66295  45.3883 136.6090 0007861  56.5592 303.6048 15.27025697 33981
LEMUR-2-DEANANDMAEVE    
1 66678U 25276N   26163.70559332  .00007068  00000+0  33418-3 0  9999
2 66678  97.4218 237.2554 0006162  29.5077 330.6504 15.19680109 29731
LEMUR-2-STAS-GORBUK     
1 66686U 25276W   26164.24595137  .00005512  00000+0  26396-3 0  9990
2 66686  97.4255 237.8420 0005500  28.6597 331.4939 15.19341257 29819
LEMUR-2-TEODOR          
1 66768U 25276DG  26164.10247503  .00006173  00000+0  28139-3 0  9998
2 66768  97.4157 237.9322 0002050 119.8189 240.3251 15.21007667 29823
